     2.100          NAVIGATION                              RINEX VERSION / TYPE
fic2rin                                 11/21/2012 00:14:05 PGM / RUN BY / DATE
                                                            END OF HEADER
11 12 11 20 12  0  0.0 -.325103290379D-03 -.386535248253D-11  .000000000000D+00
     .101000000000D+03 -.195312500000D+02  .638312302555D-08 -.182013994048D+00
    -.864267349243D-06  .137505145976D-01  .938586890697D-05  .515367957878D+04
     .216000000000D+06 -.763684511185D-07  .163485377904D+01  .165775418282D-06
     .888055537181D+00  .159375000000D+03  .112243978068D+01 -.910430780239D-08
    -.142863093678D-11  .100000000000D+01  .171500000000D+04  .000000000000D+00
     .340000000000D+01  .000000000000D+00 -.116415321827D-07  .101000000000D+03
     .208806000000D+06  .400000000000D+01
12 12 11 20 12  0  0.0  .102614518255D-03  .204636307899D-11  .000000000000D+00
     .210000000000D+02 -.161562500000D+02  .442161274935D-08 -.670066127355D+00
    -.791624188423D-06  .402165320702D-02  .514462590218D-05  .515367160797D+04
     .216000000000D+06  .558793544769D-07 -.147133392514D+00 -.428408384323D-07
     .982228303557D+00  .293250000000D+03  .141929974307D+00 -.818605526777D-08
     .200008331150D-09  .100000000000D+01  .171500000000D+04  .000000000000D+00
     .240000000000D+01  .000000000000D+00 -.121071934700D-07  .210000000000D+02
     .208806000000D+06  .400000000000D+01
13 12 11 20 12  0  0.0  .165917444974D-03 -.272848410532D-11  .000000000000D+00
     .620000000000D+02 -.121875000000D+01  .388873340993D-08  .200504221172D+01
    -.149011611938D-07  .477948854677D-02  .806897878647D-05  .515359206390D+04
     .216000000000D+06  .447034835815D-07 -.217356918803D+01  .726431608200D-07
     .983746272707D+00  .234906250000D+03  .207578363866D+01 -.775460872487D-08
    -.222866426138D-09  .100000000000D+01  .171500000000D+04  .000000000000D+00
     .240000000000D+01  .000000000000D+00 -.111758708954D-07  .620000000000D+02
     .208806000000D+06  .400000000000D+01
14 12 11 20 12  0  0.0  .217040535063D-03  .568434188608D-12  .000000000000D+00
     .340000000000D+02 -.509375000000D+01  .405624038726D-08  .220733953422D+01
    -.240281224251D-06  .682700169273D-02  .833347439766D-05  .515367192841D+04
     .216000000000D+06  .465661287308D-07 -.220150844955D+01 -.182539224625D-06
     .976517453197D+00  .224343750000D+03 -.202127852067D+01 -.785104131310D-08
    -.256796410887D-09  .100000000000D+01  .171500000000D+04  .000000000000D+00
     .240000000000D+01  .000000000000D+00 -.884756445885D-08  .340000000000D+02
     .208806000000D+06  .400000000000D+01
15 12 11 20 12  0  0.0 -.100113917142D-03 -.909494701773D-12  .000000000000D+00
     .720000000000D+02  .565625000000D+01  .490591863692D-08  .179881474079D+01
     .344589352608D-06  .497007055674D-02  .758469104767D-05  .515367086029D+04
     .216000000000D+06  .298023223877D-07 -.229517938382D+01  .968575477600D-07
     .943292917353D+00  .223906250000D+03  .579332807194D-01 -.833320425426D-08
    -.332871008271D-09  .100000000000D+01  .171500000000D+04  .000000000000D+00
     .240000000000D+01  .000000000000D+00 -.102445483208D-07  .720000000000D+02
     .208806000000D+06  .400000000000D+01
16 12 11 20 12  0  0.0 -.249808188528D-03 -.568434188608D-12  .000000000000D+00
     .700000000000D+01 -.818750000000D+01  .431982279510D-08 -.292304928789D+01
    -.353902578354D-06  .657578604296D-02  .542588531971D-05  .515378346825D+04
     .216000000000D+06 -.145286321640D-06 -.128868103965D+00  .186264514923D-07
     .982993788608D+00  .288343750000D+03  .238780049005D-01 -.797426073140D-08
     .188936441390D-09  .100000000000D+01  .171500000000D+04  .000000000000D+00
     .240000000000D+01  .000000000000D+00 -.977888703346D-08  .700000000000D+01
     .208806000000D+06  .400000000000D+01
17 12 11 20 12  0  0.0  .768899917603D-04 -.352429196937D-11  .000000000000D+00
     .290000000000D+02 -.644687500000D+02  .446268588878D-08  .244680761115D+01
    -.347197055817D-05  .776297796983D-02  .830180943012D-05  .515376571655D+04
     .216000000000D+06 -.596046447754D-07  .909547288627D+00 -.132247805595D-06
     .963925997330D+00  .220812500000D+03 -.228939978802D+01 -.791997275580D-08
    -.112861844006D-09  .100000000000D+01  .171500000000D+04  .000000000000D+00
     .240000000000D+01  .000000000000D+00 -.107102096081D-07  .290000000000D+02
     .208806000000D+06  .400000000000D+01
18 12 11 20 12  0  0.0  .225517433137D-03  .181898940355D-11  .000000000000D+00
     .660000000000D+02  .377500000000D+02  .533950812623D-08 -.237266046119D+01
     .194273889065D-05  .136102559045D-01  .604055821896D-05  .515374185371D+04
     .216000000000D+06  .968575477600D-07  .297113134263D+01 -.128522515297D-06
     .928764840292D+00  .245781250000D+03 -.213648308535D+01 -.829391690350D-08
     .882179603464D-10  .100000000000D+01  .171500000000D+04  .000000000000D+00
     .240000000000D+01  .000000000000D+00 -.107102096081D-07  .660000000000D+02
     .208806000000D+06  .400000000000D+01
20 12 11 20 12  0  0.0  .739279203117D-04  .113686837722D-11  .000000000000D+00
     .390000000000D+02  .393437500000D+02  .538843873582D-08 -.185699344357D+01
     .203959643841D-05  .529165181797D-02  .614486634731D-05  .515359225273D+04
     .216000000000D+06  .109896063805D-06  .291755353915D+01  .372529029846D-07
     .929353569729D+00  .244718750000D+03  .127459217302D+01 -.847821029435D-08
    -.182150444440D-10  .100000000000D+01  .171500000000D+04  .000000000000D+00
     .240000000000D+01  .000000000000D+00 -.791624188423D-08  .390000000000D+02
     .208806000000D+06  .400000000000D+01
21 12 11 20 12  0  0.0 -.263379421085D-03 -.238742359215D-11  .000000000000D+00
     .500000000000D+02  .177812500000D+02  .515807199726D-08 -.125744449391D+01
     .966712832451D-06  .194732636446D-01  .101327896118D-04  .515377023125D+04
     .216000000000D+06  .489875674248D-06  .192193330314D+01  .271946191788D-06
     .931124882643D+00  .164312500000D+03 -.220303029689D+01 -.826248702289D-08
     .628597612185D-10  .100000000000D+01  .171500000000D+04  .000000000000D+00
     .240000000000D+01  .000000000000D+00 -.111758708954D-07  .500000000000D+02
     .208806000000D+06  .400000000000D+01
22 12 11 20 12  0  0.0  .151653774083D-03  .795807864051D-12  .000000000000D+00
     .240000000000D+02  .399687500000D+02  .542486882470D-08 -.308710585280D+01
     .203028321266D-05  .618256779853D-02  .617466866970D-05  .515366637611D+04
     .216000000000D+06  .130385160446D-07  .297413612370D+01 -.372529029846D-07
     .926500180200D+00  .241250000000D+03 -.201448390988D+01 -.843320841984D-08
     .192865176466D-10  .100000000000D+01  .171500000000D+04  .000000000000D+00
     .240000000000D+01  .000000000000D+00 -.172294676304D-07  .240000000000D+02
     .208806000000D+06  .400000000000D+01
23 12 11 20 12  0  0.0  .142110045999D-03 -.386535248253D-11  .000000000000D+00
     .104000000000D+03 -.471875000000D+01  .456661878943D-08  .128939413761D+01
    -.117346644402D-06  .812707166187D-02  .745244324207D-05  .515378526115D+04
     .216000000000D+06 -.126659870148D-06 -.225682464736D+01  .987201929092D-07
     .958109901717D+00  .235625000000D+03 -.291701169331D+01 -.814355349740D-08
    -.349300264044D-09  .100000000000D+01  .171500000000D+04  .000000000000D+00
     .340000000000D+01  .000000000000D+00 -.204890966415D-07  .104000000000D+03
     .208806000000D+06  .400000000000D+01
24 12 11 20 12  0  0.0  .367918983102D-05 -.568434188608D-12  .000000000000D+00
     .300000000000D+02  .422187500000D+02  .444625663301D-08  .112213988979D+01
     .212527811527D-05  .181924900971D-03  .829622149467D-05  .515372962570D+04
     .216000000000D+06  .335276126862D-07 -.122987236777D+01  .242143869400D-07
     .959275826946D+00  .220687500000D+03 -.432881485606D+00 -.813676750046D-08
     .157506560780D-09  .100000000000D+01  .171500000000D+04  .000000000000D+00
     .240000000000D+01  .000000000000D+00  .465661287308D-08  .300000000000D+02
     .208806000000D+06  .400000000000D+01
25 12 11 20 12  0  0.0  .520921312273D-04  .193267624127D-11  .000000000000D+00
     .450000000000D+02 -.687500000000D+01  .463019286612D-08 -.173892569660D+01
    -.374391674995D-06  .183779909275D-02  .511668622494D-05  .515362609482D+04
     .216000000000D+06  .167638063431D-07 -.183230711792D+00 -.428408384323D-07
     .971066971534D+00  .287468750000D+03  .683845496110D+00 -.826248702289D-08
     .218223375594D-09  .100000000000D+01  .171500000000D+04  .000000000000D+00
     .240000000000D+01  .000000000000D+00  .512227416039D-08  .450000000000D+02
     .208806000000D+06  .400000000000D+01
26 12 11 20 12  0  0.0 -.203435309231D-03  .135287336889D-10  .000000000000D+00
     .700000000000D+02  .775000000000D+01  .408588447920D-08  .113482542153D+01
     .273808836937D-06  .208571460098D-01  .857748091221D-05  .515365961456D+04
     .216000000000D+06 -.352039933205D-06 -.218025691803D+01 -.242143869400D-07
     .981244780807D+00  .230125000000D+03  .121048494352D+01 -.817605485122D-08
    -.332871008271D-09  .100000000000D+01  .171500000000D+04  .000000000000D+00
     .240000000000D+01  .000000000000D+00 -.605359673500D-08  .700000000000D+02
     .208806000000D+06  .400000000000D+01
27 12 11 20 12  0  0.0 -.211818143725D-03  .318323145621D-11  .000000000000D+00
     .300000000000D+01 -.490625000000D+01  .573488173799D-08 -.306251478359D+01
    -.368803739548D-06  .561483413912D-02  .527501106262D-05  .515360179901D+04
     .216000000000D+06 -.242143869400D-07 -.167500986506D+00 -.122934579849D-06
     .975944613976D+00  .287031250000D+03  .873864332117D+00 -.810605193531D-08
     .208937274505D-09  .100000000000D+01  .171500000000D+04  .000000000000D+00
     .240000000000D+01  .630000000000D+02 -.190921127796D-07  .300000000000D+01
     .208806000000D+06  .400000000000D+01
